[{"OBJECT_NAME":"ONEWEB-0412","OBJECT_ID":"2021-132W","EPOCH":"2025-08-15T22:17:58.727616","MEAN_MOTION":13.18685175,"ECCENTRICITY":0.0002136,"INCLINATION":87.9137,"RA_OF_ASC_NODE":36.0832,"ARG_OF_PERICENTER":87.4802,"MEAN_ANOMALY":272.6575,"EPHEMERIS_TYPE":0,"CLASSIFICATION_TYPE":"U","NORAD_CAT_ID":50489,"ELEMENT_SET_NO":999,"REV_AT_EPOCH":18142,"BSTAR":2.3343e-5,"MEAN_MOTION_DOT":2.2e-7,"MEAN_MOTION_DDOT":0},{"OBJECT_NAME":"ONEWEB-0413","OBJECT_ID":"2021-132X","EPOCH":"2025-08-16T09:20:39.340608","MEAN_MOTION":13.1868354,"ECCENTRICITY":0.0002016,"INCLINATION":87.9141,"RA_OF_ASC_NODE":36.0072,"ARG_OF_PERICENTER":83.2102,"MEAN_ANOMALY":276.9259,"EPHEMERIS_TYPE":0,"CLASSIFICATION_TYPE":"U","NORAD_CAT_ID":50490,"ELEMENT_SET_NO":999,"REV_AT_EPOCH":18271,"BSTAR":7.8975e-5,"MEAN_MOTION_DOT":4.4e-7,"MEAN_MOTION_DDOT":0},{"OBJECT_NAME":"ONEWEB-0414","OBJECT_ID":"2021-132Y","EPOCH":"2025-08-16T10:48:33.423840","MEAN_MOTION":13.18685619,"ECCENTRICITY":0.0002041,"INCLINATION":87.9139,"RA_OF_ASC_NODE":35.9552,"ARG_OF_PERICENTER":92.692,"MEAN_ANOMALY":267.4446,"EPHEMERIS_TYPE":0,"CLASSIFICATION_TYPE":"U","NORAD_CAT_ID":50491,"ELEMENT_SET_NO":999,"REV_AT_EPOCH":18275,"BSTAR":2.2156e-6,"MEAN_MOTION_DOT":1.4e-7,"MEAN_MOTION_DDOT":0},{"OBJECT_NAME":"ONEWEB-0417","OBJECT_ID":"2021-132Z","EPOCH":"2025-08-16T09:11:10.702464","MEAN_MOTION":13.18686102,"ECCENTRICITY":0.0001786,"INCLINATION":87.9143,"RA_OF_ASC_NODE":36.0007,"ARG_OF_PERICENTER":99.5373,"MEAN_ANOMALY":260.5961,"EPHEMERIS_TYPE":0,"CLASSIFICATION_TYPE":"U","NORAD_CAT_ID":50492,"ELEMENT_SET_NO":999,"REV_AT_EPOCH":18272,"BSTAR":9.2443e-5,"MEAN_MOTION_DOT":4.9e-7,"MEAN_MOTION_DDOT":0},{"OBJECT_NAME":"ONEWEB-0418","OBJECT_ID":"2021-132AA","EPOCH":"2025-08-16T09:25:11.567136","MEAN_MOTION":13.18687806,"ECCENTRICITY":0.0001881,"INCLINATION":87.9141,"RA_OF_ASC_NODE":35.9846,"ARG_OF_PERICENTER":103.7418,"MEAN_ANOMALY":256.3924,"EPHEMERIS_TYPE":0,"CLASSIFICATION_TYPE":"U","NORAD_CAT_ID":50493,"ELEMENT_SET_NO":999,"REV_AT_EPOCH":18277,"BSTAR":0.0001127,"MEAN_MOTION_DOT":5.7e-7,"MEAN_MOTION_DDOT":0},{"OBJECT_NAME":"ONEWEB-0419","OBJECT_ID":"2021-132AB","EPOCH":"2025-08-15T21:06:41.883552","MEAN_MOTION":13.18688118,"ECCENTRICITY":0.0001581,"INCLINATION":87.9137,"RA_OF_ASC_NODE":36.0888,"ARG_OF_PERICENTER":100.3656,"MEAN_ANOMALY":259.7654,"EPHEMERIS_TYPE":0,"CLASSIFICATION_TYPE":"U","NORAD_CAT_ID":50494,"ELEMENT_SET_NO":999,"REV_AT_EPOCH":18134,"BSTAR":0.00022473,"MEAN_MOTION_DOT":1.02e-6,"MEAN_MOTION_DDOT":0},{"OBJECT_NAME":"ONEWEB-0420","OBJECT_ID":"2021-132AC","EPOCH":"2025-08-16T10:50:55.705632","MEAN_MOTION":13.18685425,"ECCENTRICITY":0.0001821,"INCLINATION":87.9139,"RA_OF_ASC_NODE":35.9848,"ARG_OF_PERICENTER":80.764,"MEAN_ANOMALY":279.3698,"EPHEMERIS_TYPE":0,"CLASSIFICATION_TYPE":"U","NORAD_CAT_ID":50495,"ELEMENT_SET_NO":999,"REV_AT_EPOCH":18271,"BSTAR":4.0697e-5,"MEAN_MOTION_DOT":2.9e-7,"MEAN_MOTION_DDOT":0},{"OBJECT_NAME":"ONEWEB-0421","OBJECT_ID":"2021-132AD","EPOCH":"2025-08-15T21:56:35.964096","MEAN_MOTION":13.1868539,"ECCENTRICITY":0.0002124,"INCLINATION":87.9139,"RA_OF_ASC_NODE":36.0851,"ARG_OF_PERICENTER":92.2652,"MEAN_ANOMALY":267.8724,"EPHEMERIS_TYPE":0,"CLASSIFICATION_TYPE":"U","NORAD_CAT_ID":50496,"ELEMENT_SET_NO":999,"REV_AT_EPOCH":18138,"BSTAR":0.00011316,"MEAN_MOTION_DOT":5.8e-7,"MEAN_MOTION_DDOT":0},{"OBJECT_NAME":"ONEWEB-0424","OBJECT_ID":"2021-132AE","EPOCH":"2025-08-16T09:44:24.189792","MEAN_MOTION":13.18687497,"ECCENTRICITY":0.0001403,"INCLINATION":87.9141,"RA_OF_ASC_NODE":35.9813,"ARG_OF_PERICENTER":98.1025,"MEAN_ANOMALY":262.0266,"EPHEMERIS_TYPE":0,"CLASSIFICATION_TYPE":"U","NORAD_CAT_ID":50497,"ELEMENT_SET_NO":999,"REV_AT_EPOCH":18275,"BSTAR":0.00013993,"MEAN_MOTION_DOT":6.8e-7,"MEAN_MOTION_DDOT":0},{"OBJECT_NAME":"ONEWEB-0426","OBJECT_ID":"2021-132AF","EPOCH":"2025-08-16T10:36:40.734432","MEAN_MOTION":13.18685391,"ECCENTRICITY":0.000244,"INCLINATION":87.9137,"RA_OF_ASC_NODE":35.9675,"ARG_OF_PERICENTER":102.8682,"MEAN_ANOMALY":257.2723,"EPHEMERIS_TYPE":0,"CLASSIFICATION_TYPE":"U","NORAD_CAT_ID":50498,"ELEMENT_SET_NO":999,"REV_AT_EPOCH":18271,"BSTAR":0.00011883,"MEAN_MOTION_DOT":6.0e-7,"MEAN_MOTION_DDOT":0},{"OBJECT_NAME":"ONEWEB-0427","OBJECT_ID":"2021-132AG","EPOCH":"2025-08-16T09:42:01.606464","MEAN_MOTION":13.18687434,"ECCENTRICITY":0.0001794,"INCLINATION":87.9138,"RA_OF_ASC_NODE":35.9641,"ARG_OF_PERICENTER":99.6916,"MEAN_ANOMALY":260.4419,"EPHEMERIS_TYPE":0,"CLASSIFICATION_TYPE":"U","NORAD_CAT_ID":50499,"ELEMENT_SET_NO":999,"REV_AT_EPOCH":18274,"BSTAR":9.4516e-5,"MEAN_MOTION_DOT":5.0e-7,"MEAN_MOTION_DDOT":0},{"OBJECT_NAME":"ONEWEB-0429","OBJECT_ID":"2021-132AH","EPOCH":"2025-08-16T09:23:02.527872","MEAN_MOTION":13.1868714,"ECCENTRICITY":0.0001779,"INCLINATION":87.9141,"RA_OF_ASC_NODE":35.9961,"ARG_OF_PERICENTER":87.4668,"MEAN_ANOMALY":272.6668,"EPHEMERIS_TYPE":0,"CLASSIFICATION_TYPE":"U","NORAD_CAT_ID":50500,"ELEMENT_SET_NO":999,"REV_AT_EPOCH":18270,"BSTAR":-3.553e-5,"MEAN_MOTION_DOT":-1.0e-8,"MEAN_MOTION_DDOT":0},{"OBJECT_NAME":"ONEWEB-0430","OBJECT_ID":"2021-132AJ","EPOCH":"2025-08-16T09:06:25.203168","MEAN_MOTION":13.18685863,"ECCENTRICITY":0.0001523,"INCLINATION":87.9142,"RA_OF_ASC_NODE":35.9926,"ARG_OF_PERICENTER":88.6204,"MEAN_ANOMALY":271.5103,"EPHEMERIS_TYPE":0,"CLASSIFICATION_TYPE":"U","NORAD_CAT_ID":50501,"ELEMENT_SET_NO":999,"REV_AT_EPOCH":18274,"BSTAR":-1.2327e-5,"MEAN_MOTION_DOT":8.0e-8,"MEAN_MOTION_DDOT":0},{"OBJECT_NAME":"ONEWEB-0432","OBJECT_ID":"2021-132AK","EPOCH":"2025-08-15T21:07:00.891552","MEAN_MOTION":13.18688713,"ECCENTRICITY":0.000148,"INCLINATION":87.9131,"RA_OF_ASC_NODE":36.0725,"ARG_OF_PERICENTER":122.7063,"MEAN_ANOMALY":237.4212,"EPHEMERIS_TYPE":0,"CLASSIFICATION_TYPE":"U","NORAD_CAT_ID":50502,"ELEMENT_SET_NO":999,"REV_AT_EPOCH":18134,"BSTAR":0.00013664,"MEAN_MOTION_DOT":6.7e-7,"MEAN_MOTION_DDOT":0},{"OBJECT_NAME":"ONEWEB-0440","OBJECT_ID":"2021-132AL","EPOCH":"2025-08-15T22:39:21.172320","MEAN_MOTION":13.18687458,"ECCENTRICITY":0.0002148,"INCLINATION":87.9142,"RA_OF_ASC_NODE":36.0684,"ARG_OF_PERICENTER":85.0303,"MEAN_ANOMALY":275.1074,"EPHEMERIS_TYPE":0,"CLASSIFICATION_TYPE":"U","NORAD_CAT_ID":50503,"ELEMENT_SET_NO":999,"REV_AT_EPOCH":18134,"BSTAR":0.00018066,"MEAN_MOTION_DOT":8.4e-7,"MEAN_MOTION_DDOT":0},{"OBJECT_NAME":"ONEWEB-0450","OBJECT_ID":"2021-132AM","EPOCH":"2025-08-16T09:25:38.508384","MEAN_MOTION":13.18685831,"ECCENTRICITY":0.0001661,"INCLINATION":87.9141,"RA_OF_ASC_NODE":36.0049,"ARG_OF_PERICENTER":82.6642,"MEAN_ANOMALY":277.4679,"EPHEMERIS_TYPE":0,"CLASSIFICATION_TYPE":"U","NORAD_CAT_ID":50504,"ELEMENT_SET_NO":999,"REV_AT_EPOCH":18272,"BSTAR":0.00013058,"MEAN_MOTION_DOT":6.4e-7,"MEAN_MOTION_DDOT":0},{"OBJECT_NAME":"ONEWEB-0410","OBJECT_ID":"2022-012A","EPOCH":"2025-08-15T19:14:53.620800","MEAN_MOTION":13.17649609,"ECCENTRICITY":0.0002573,"INCLINATION":87.9035,"RA_OF_ASC_NODE":66.6094,"ARG_OF_PERICENTER":120.6392,"MEAN_ANOMALY":239.4993,"EPHEMERIS_TYPE":0,"CLASSIFICATION_TYPE":"U","NORAD_CAT_ID":51622,"ELEMENT_SET_NO":999,"REV_AT_EPOCH":17348,"BSTAR":-0.00019862,"MEAN_MOTION_DOT":-6.4e-7,"MEAN_MOTION_DDOT":0}]
