ONEWEB-0412             
1 50489U 21132W   25227.92915194  .00000022  00000+0  23343-4 0  9995
2 50489  87.9137  36.0832 0002136  87.4802 272.6575 13.18685175181421
ONEWEB-0413             
1 50490U 21132X   25228.38934422  .00000044  00000+0  78975-4 0  9998
2 50490  87.9141  36.0072 0002016  83.2102 276.9259 13.18683540182711
ONEWEB-0414             
1 50491U 21132Y   25228.45038685  .00000014  00000+0  22156-5 0  9991
2 50491  87.9139  35.9552 0002041  92.6920 267.4446 13.18685619182756
ONEWEB-0417             
1 50492U 21132Z   25228.38276276  .00000049  00000+0  92443-4 0  9997
2 50492  87.9143  36.0007 0001786  99.5373 260.5961 13.18686102182723
ONEWEB-0418             
1 50493U 21132AA  25228.39249499  .00000057  00000+0  11270-3 0  9993
2 50493  87.9141  35.9846 0001881 103.7418 256.3924 13.18687806182774
ONEWEB-0419             
1 50494U 21132AB  25227.87965143  .00000102  00000+0  22473-3 0  9995
2 50494  87.9137  36.0888 0001581 100.3656 259.7654 13.18688118181348
ONEWEB-0420             
1 50495U 21132AC  25228.45203363  .00000029  00000+0  40697-4 0  9997
2 50495  87.9139  35.9848 0001821  80.7640 279.3698 13.18685425182712
ONEWEB-0421             
1 50496U 21132AD  25227.91430514  .00000058  00000+0  11316-3 0  9995
2 50496  87.9139  36.0851 0002124  92.2652 267.8724 13.18685390181382
ONEWEB-0424             
1 50497U 21132AE  25228.40583553  .00000068  00000+0  13993-3 0  9997
2 50497  87.9141  35.9813 0001403  98.1025 262.0266 13.18687497182750
ONEWEB-0426             
1 50498U 21132AF  25228.44213813  .00000060  00000+0  11883-3 0  9999
2 50498  87.9137  35.9675 0002440 102.8682 257.2723 13.18685391182717
ONEWEB-0427             
1 50499U 21132AG  25228.40418526  .00000050  00000+0  94516-4 0  9998
2 50499  87.9138  35.9641 0001794  99.6916 260.4419 13.18687434182747
ONEWEB-0429             
1 50500U 21132AH  25228.39100148 -.00000001  00000+0 -35530-4 0  9996
2 50500  87.9141  35.9961 0001779  87.4668 272.6668 13.18687140182702
ONEWEB-0430             
1 50501U 21132AJ  25228.37945837  .00000008  00000+0 -12327-4 0  9992
2 50501  87.9142  35.9926 0001523  88.6204 271.5103 13.18685863182747
ONEWEB-0432             
1 50502U 21132AK  25227.87987143  .00000067  00000+0  13664-3 0  9991
2 50502  87.9131  36.0725 0001480 122.7063 237.4212 13.18688713181344
ONEWEB-0440             
1 50503U 21132AL  25227.94399505  .00000084  00000+0  18066-3 0  9999
2 50503  87.9142  36.0684 0002148  85.0303 275.1074 13.18687458181341
ONEWEB-0450             
1 50504U 21132AM  25228.39280681  .00000064  00000+0  13058-3 0  9998
2 50504  87.9141  36.0049 0001661  82.6642 277.4679 13.18685831182726
ONEWEB-0410             
1 51622U 22012A   25227.80200950 -.00000064  00000+0 -19862-3 0  9995
2 51622  87.9035  66.6094 0002573 120.6392 239.4993 13.17649609173489
